STARLINK-35472          
1 65913U 25225D   25306.50002315  .00039058  00000+0  70777-3 0  9997
2 65913  53.1604  38.7471 0001150  51.5447 274.4974 15.49269915  4943
STARLINK-35524          
1 65914U 25225E   25306.50002315  .00043084  00000+0  77969-3 0  9992
2 65914  53.1600  38.7436 0000948  73.3597 254.6106 15.49262930  4951
STARLINK-35539          
1 65915U 25225F   25306.50002315  .00013176  00000+0  33890-3 0  9997
2 65915  53.1594  39.2570 0001863  85.0411 347.4779 15.39612767  4909
STARLINK-35521          
1 65916U 25225G   25306.50002315  .00041239  00000+0  74678-3 0  9998
2 65916  53.1604  38.7348 0000978  71.7039 260.0985 15.49264859  4953
STARLINK-35478          
1 65917U 25225H   25306.50002315  .00037756  00000+0  68454-3 0  9993
2 65917  53.1603  38.7265 0001157  53.3066 282.3196 15.49270569  4908
STARLINK-35516          
1 65918U 25225J   25306.50002315  .00040585  00000+0  73512-3 0  9999
2 65918  53.1601  38.7309 0000989  65.9639 267.7553 15.49264879  4959
STARLINK-35519          
1 65919U 25225K   25306.50002315  .00040869  00000+0  74019-3 0  9998
2 65919  53.1601  38.7233 0001032  70.2775 267.2764 15.49264394  4957
STARLINK-33902          
1 65920U 25225L   25306.50002315  .00040663  00000+0  73645-3 0  9996
2 65920  53.1603  38.7187 0001112  50.8915 288.5720 15.49267223  4949
STARLINK-35530          
1 65921U 25225M   25306.50002315  .00038544  00000+0  69861-3 0  9997
2 65921  53.1598  38.7152 0001088  53.0650 288.3122 15.49269816  4908
STARLINK-35544          
1 65922U 25225N   25306.50002315  .00037199  00000+0  67462-3 0  9998
2 65922  53.1603  38.7106 0001135  49.3271 293.9668 15.49270657  4952
STARLINK-35484          
1 65923U 25225P   25306.50002315  .00041793  00000+0  75671-3 0  9995
2 65923  53.1598  38.7070 0000979  66.1251 279.0988 15.49262535  4952
STARLINK-34994          
1 65924U 25225Q   25306.50002315  .00040204  00000+0  72832-3 0  9998
2 65924  53.1598  38.7029 0000930  70.2981 276.8394 15.49265270  4955
STARLINK-35458          
1 65925U 25225R   25306.50002315  .00038127  00000+0  69125-3 0  9991
2 65925  53.1598  38.6945 0000978  75.1364 275.8331 15.49267007  4964
STARLINK-35492          
1 65926U 25225S   25306.50002315  .00039560  00000+0  71684-3 0  9997
2 65926  53.1598  38.6985 0000936  68.9467 280.1082 15.49265166  4963
STARLINK-35494          
1 65927U 25225T   25306.50002315  .00040696  00000+0  73706-3 0  9997
2 65927  53.1599  38.6897 0001105  49.7153 303.1676 15.49266361  4968
STARLINK-35493          
1 65928U 25225U   25306.50002315  .00037861  00000+0  68638-3 0  9996
2 65928  53.1601  38.6817 0001136  56.5812 300.1263 15.49272293  4912
STARLINK-35175          
1 65929U 25225V   25306.50002315  .00037771  00000+0  68494-3 0  9997
2 65929  53.1597  38.6782 0000895  70.2224 288.4173 15.49265548  4967
STARLINK-35513          
1 65930U 25225W   25306.50002315  .00039595  00000+0  71740-3 0  9993
2 65930  53.1600  38.6856 0001095  48.1272 306.6708 15.49267826  4964
STARLINK-35526          
1 65931U 25225X   25306.50002315  .00041252  00000+0  74707-3 0  9993
2 65931  53.1599  38.6733 0000960  67.9897 292.5697 15.49262381  4969
STARLINK-35436          
1 65932U 25225Y   25306.50002315  .00037146  00000+0  67379-3 0  9998
2 65932  53.1598  38.6702 0000915  71.4412 291.0320 15.49266057  4969
STARLINK-35192          
1 65933U 25225Z   25306.50002315  .00037303  00000+0  67650-3 0  9996
2 65933  53.1599  38.6577 0001116  57.0397 311.1746 15.49269813  4966
STARLINK-33921          
1 65934U 25225AA  25306.50002315  .00038066  00000+0  69022-3 0  9999
2 65934  53.1598  38.6661 0000925  73.2296 291.1626 15.49264444  4953
STARLINK-35155          
1 65935U 25225AB  25306.50002315  .00038524  00000+0  69831-3 0  9997
2 65935  53.1597  38.6620 0001108  49.8433 316.4564 15.49268025  4955
STARLINK-35161          
1 65936U 25225AC  25306.50002315  .00036422  00000+0  66076-3 0  9991
2 65936  53.1599  38.6543 0001114  51.4051 318.7247 15.49270942  4969
STARLINK-35473          
1 65937U 25225AD  25306.50002315  .00038636  00000+0  70032-3 0  9998
2 65937  53.1598  38.6508 0000984  56.1196 315.9317 15.49267396  4962
2025-226A               
1 65938U 25226A   25306.51582150  .00008891  00000+0  52183-3 0  9998
2 65938  97.6669  20.7132 0014847 203.1336 156.9227 15.11881711  3394
2025-226B               
1 65939U 25226B   25306.54119002  .00005916  00000+0  36900-3 0  9998
2 65939  97.6633  20.6683 0020828 206.6073 153.4088 15.09728907  3388
2025-226C               
1 65940U 25226C   25306.45128709  .00008864  00000+0  52189-3 0  9996
2 65940  97.6579  20.6201 0014796 201.1880 158.8739 15.11768752  3374
YOTSUBA-KULOVER         
1 65941U 98067XN  25305.55120278  .00048767  00000+0  76336-3 0  9999
2 65941  51.6329 345.9990 0002613 350.0726  10.0213 15.53246603  3440
BOTAN                   
1 65942U 98067XP  25305.54523315  .00066684  00000+0  10070-2 0  9998
2 65942  51.6331 345.9591 0004625   5.6465 354.4577 15.54095782  3448
E-KAGAKU-1              
1 65943U 98067XQ  25305.48643289  .00048933  00000+0  76576-3 0  9996
2 65943  51.6344 346.3156 0004407 355.0444   5.0502 15.53246328  3431
2025-226D               
1 65944U 25226D   25306.48432735  .01039059  00000+0  24976-1 0  9992
2 65944  97.6590  21.0535 0020259 273.6163  86.2765 15.38621241  3390
SHIYAN-31               
1 65945U 25227A   25306.47023678  .00008688  00000+0  39765-3 0  9992
2 65945  80.0034  75.3949 0011494 202.6806 157.3914 15.20358413  3056
CZ-2D R/B               
1 65946U 25227B   25306.44379855  .00011097  00000+0  40959-3 0  9996
2 65946  80.1543  75.7264 0021337 329.3038  30.6943 15.27445498  3061
KUIPER-00101            
1 65947U 25228A   25306.48547432  .00054697  00000+0  15957-2 0  9992
2 65947  51.8803 214.5048 0006287 201.6219 158.4502 15.34795821  4235
KUIPER-00113            
1 65948U 25228B   25306.48215377  .00025746  00000+0  75316-3 0  9992
2 65948  51.8806 214.4820 0006219 200.2521 159.8219 15.35076687  4235
KUIPER-00117            
1 65949U 25228C   25306.48269176  .00019572  00000+0  57667-3 0  9998
2 65949  51.8804 214.4852 0006092 200.5037 159.5706 15.35022195  4236
KUIPER-00121            
1 65950U 25228D   25306.29491073  .00032242  00000+0  95888-3 0  9998
2 65950  51.8807 215.4787 0005798 216.0676 143.9919 15.34438427  4200
KUIPER-00122            
1 65951U 25228E   25306.50002315 -.00972201  00000+0 -33197-1 0  9993
2 65951  51.8802 214.5330 0006712 238.5976 155.4571 15.32276660  2868
KUIPER-00123            
1 65952U 25228F   25306.50002315 -.00794064  00000+0 -27206-1 0  9997
2 65952  51.8804 214.5128 0005103 211.0680 184.1597 15.32088084  1303
KUIPER-00124            
1 65953U 25228G   25306.36218874  .00018776  00000+0  56751-3 0  9997
2 65953  51.8799 215.1771 0005563 227.1961 132.8557 15.34246726  4218
KUIPER-00125            
1 65954U 25228H   25306.35695102  .00016936  00000+0  50639-3 0  9995
2 65954  51.8794 215.1375 0005628 208.9702 151.0972 15.34664903  4211
KUIPER-00126            
1 65955U 25228J   25306.36073388  .00026671  00000+0  79679-3 0  9995
2 65955  51.8798 215.1661 0005781 224.6290 135.4230 15.34395653  4217
KUIPER-00127            
1 65956U 25228K   25306.35291591  .00026950  00000+0  79004-3 0  9995
2 65956  51.8802 215.1158 0005801 200.7849 159.2902 15.34986675  4213
KUIPER-00128            
1 65957U 25228L   25306.48590846  .00029316  00000+0  86390-3 0  9990
2 65957  51.8808 214.5097 0005733 205.3431 154.7274 15.34776925  4236
KUIPER-00129            
1 65958U 25228M   25305.24819701  .00367958  00000+0  10095-1 0  9992
2 65958  51.8802 220.4645 0006173 235.5986 124.4417 15.35235036  4041
KUIPER-00130            
1 65959U 25228N   25306.35816380  .00024591  00000+0  73110-3 0  9998
2 65959  51.8794 215.1460 0005268 215.2530 144.8107 15.34597818  4211
KUIPER-00134            
1 65960U 25228P   25306.35946035  .00029735  00000+0  88414-3 0  9999
2 65960  51.8790 215.1541 0005131 219.5012 140.5600 15.34489881  4211
KUIPER-00135            
1 65961U 25228Q   25306.35909558  .00017939  00000+0  53898-3 0  9990
2 65961  51.8804 215.1596 0005218 206.9286 153.1430 15.34470342  4210
KUIPER-00136            
1 65962U 25228R   25306.48400869  .00026378  00000+0  77511-3 0  9991
2 65962  51.8807 214.4959 0006037 210.3744 149.6893 15.34923064  4236
KUIPER-00137            
1 65963U 25228S   25306.35845519  .00026138  00000+0  77856-3 0  9999
2 65963  51.8806 215.1553 0004878 213.7255 146.3421 15.34504287  4210
KUIPER-00138            
1 65964U 25228T   25306.36061444  .00036011  00000+0  10714-2 0  9998
2 65964  51.8794 215.1622 0005905 224.2055 135.8459 15.34368966  4217
KUIPER-00140            
1 65965U 25228U   25306.36144532  .00018789  00000+0  56655-3 0  9996
2 65965  51.8800 215.1718 0005533 227.5833 132.4685 15.34322891  4210
KUIPER-00141            
1 65966U 25228V   25306.48638269  .00024710  00000+0  73122-3 0  9994
2 65966  51.8799 214.5056 0005686 206.8698 153.1994 15.34739880  4239
KUIPER-00146            
1 65967U 25228W   25306.29146358  .00017162  00000+0  51255-3 0  9993
2 65967  51.8804 215.4566 0005669 207.3233 152.7455 15.34691498  4201
KUIPER-00149            
1 65968U 25228X   25306.48448859  .00019166  00000+0  56759-3 0  9996
2 65968  51.8801 214.4948 0005623 204.6765 155.3953 15.34877787  4234
KUIPER-00154            
1 65969U 25228Y   25306.48361436  .00035231  00000+0  10292-2 0  9994
2 65969  51.8799 214.4889 0005774 202.6776 157.3955 15.34957662  4237
KUIPER-00157            
1 65970U 25228Z   25306.35951036  .00019877  00000+0  59543-3 0  9994
2 65970  51.8805 215.1617 0005828 218.7145 141.3423 15.34489753  4214
STRIX-5                 
1 65971U 25229A   25306.47006052  .00004176  00000+0  32489-3 0  9994
2 65971  41.9267 102.2786 0039344   7.3629 352.7766 15.01714819  2853
